{
  "norad_id": 62043,
  "name": "STARLINK-32491",
  "history": [
    {
      "epoch": "2026-04-14T21:04:03.196128Z",
      "apogee_km": 483.57744203852144,
      "perigee_km": 482.2861888874504,
      "latitude_deg": -6.7119024559871756e-06,
      "longitude_deg": -99.63355041040367,
      "height_km": 483.0180985282501,
      "semi_major_axis_km": 6861.068815462985,
      "eccentricity": 9.41e-05,
      "inclination_deg": 43.0002,
      "raan_deg": 59.4277,
      "arg_perigee_deg": 241.294,
      "mean_anomaly_deg": 118.7817,
      "mean_motion_rev_day": 15.27619168
    },
    {
      "epoch": "2026-04-15T06:28:59.569824Z",
      "apogee_km": 484.16328110252834,
      "perigee_km": 481.9608362047002,
      "latitude_deg": 4.549431496292388e-06,
      "longitude_deg": 116.53128453425606,
      "height_km": 482.7843442130931,
      "semi_major_axis_km": 6861.199058653614,
      "eccentricity": 0.0001605,
      "inclination_deg": 43.0026,
      "raan_deg": 57.2141,
      "arg_perigee_deg": 272.8565,
      "mean_anomaly_deg": 87.2103,
      "mean_motion_rev_day": 15.27575671
    },
    {
      "epoch": "2026-04-16T02:53:02.431392Z",
      "apogee_km": 484.184830332646,
      "perigee_km": 481.9144636711544,
      "latitude_deg": 6.044320776919656e-05,
      "longitude_deg": 164.879891749753,
      "height_km": 482.8565780830404,
      "semi_major_axis_km": 6861.1866470019,
      "eccentricity": 0.00016545,
      "inclination_deg": 43.0028,
      "raan_deg": 52.4124,
      "arg_perigee_deg": 268.4997,
      "mean_anomaly_deg": 91.5666,
      "mean_motion_rev_day": 15.27579816
    },
    {
      "epoch": "2026-04-17T05:33:42.201216Z",
      "apogee_km": 484.02828511017924,
      "perigee_km": 482.0036960857151,
      "latitude_deg": -2.5139662942260723e-09,
      "longitude_deg": 117.34080684933997,
      "height_km": 482.96295053457067,
      "semi_major_axis_km": 6861.152990597947,
      "eccentricity": 0.00014754,
      "inclination_deg": 43.0022,
      "raan_deg": 46.1347,
      "arg_perigee_deg": 260.3326,
      "mean_anomaly_deg": 99.7359,
      "mean_motion_rev_day": 15.27591056
    },
    {
      "epoch": "2026-04-18T20:47:36.813984Z",
      "apogee_km": 483.86542757443203,
      "perigee_km": 482.1323046546513,
      "latitude_deg": -6.6255929497471e-05,
      "longitude_deg": -121.97791040489457,
      "height_km": 482.75510276896864,
      "semi_major_axis_km": 6861.135866114541,
      "eccentricity": 0.0001263,
      "inclination_deg": 43.0035,
      "raan_deg": 36.9048,
      "arg_perigee_deg": 271.372,
      "mean_anomaly_deg": 88.6986,
      "mean_motion_rev_day": 15.27596775
    },
    {
      "epoch": "2026-04-19T03:04:13.933056Z",
      "apogee_km": 483.9096675117762,
      "perigee_km": 482.0328799545796,
      "latitude_deg": -8.286519262255696e-06,
      "longitude_deg": 142.1326021399608,
      "height_km": 482.7926855434535,
      "semi_major_axis_km": 6861.108273733178,
      "eccentricity": 0.00013677,
      "inclination_deg": 43.0037,
      "raan_deg": 35.4277,
      "arg_perigee_deg": 267.2921,
      "mean_anomaly_deg": 92.7774,
      "mean_motion_rev_day": 15.2760599
    },
    {
      "epoch": "2026-04-20T04:10:44.794848Z",
      "apogee_km": 484.10328640489115,
      "perigee_km": 482.01117106066613,
      "latitude_deg": -2.7874719775602436e-05,
      "longitude_deg": 118.56611653083552,
      "height_km": 483.11498167304825,
      "semi_major_axis_km": 6861.194228732778,
      "eccentricity": 0.00015246,
      "inclination_deg": 43.0038,
      "raan_deg": 29.521,
      "arg_perigee_deg": 254.4397,
      "mean_anomaly_deg": 105.6286,
      "mean_motion_rev_day": 15.27577284
    },
    {
      "epoch": "2026-04-21T02:08:56.778720Z",
      "apogee_km": 483.8900605913859,
      "perigee_km": 482.150071159479,
      "latitude_deg": 4.420509936852737e-05,
      "longitude_deg": 142.94478287397556,
      "height_km": 482.79632752941086,
      "semi_major_axis_km": 6861.157065875432,
      "eccentricity": 0.0001268,
      "inclination_deg": 43.0037,
      "raan_deg": 24.3518,
      "arg_perigee_deg": 270.0485,
      "mean_anomaly_deg": 90.0222,
      "mean_motion_rev_day": 15.27589695
    },
    {
      "epoch": "2026-04-22T03:15:26.400672Z",
      "apogee_km": 483.85531282127886,
      "perigee_km": 482.09969084254953,
      "latitude_deg": -1.416043837268491e-05,
      "longitude_deg": 119.38163482907987,
      "height_km": 482.716775424566,
      "semi_major_axis_km": 6861.114501831914,
      "eccentricity": 0.00012794,
      "inclination_deg": 43.0051,
      "raan_deg": 18.4433,
      "arg_perigee_deg": 272.4745,
      "mean_anomaly_deg": 87.596,
      "mean_motion_rev_day": 15.2760391
    },
    {
      "epoch": "2026-04-23T02:47:47.607072Z",
      "apogee_km": 484.15608350181174,
      "perigee_km": 481.9074040577252,
      "latitude_deg": 2.810105394995981e-05,
      "longitude_deg": 119.78979600569669,
      "height_km": 482.9053995703033,
      "semi_major_axis_km": 6861.168743779768,
      "eccentricity": 0.00016387,
      "inclination_deg": 43.0041,
      "raan_deg": 12.9065,
      "arg_perigee_deg": 265.0853,
      "mean_anomaly_deg": 94.9812,
      "mean_motion_rev_day": 15.27585795
    },
    {
      "epoch": "2026-04-24T18:01:42.604320Z",
      "apogee_km": 484.00166546308355,
      "perigee_km": 482.16148664098637,
      "latitude_deg": 7.078845391170648e-07,
      "longitude_deg": -119.53688932589107,
      "height_km": 483.38703417961034,
      "semi_major_axis_km": 6861.218576052035,
      "eccentricity": 0.0001341,
      "inclination_deg": 43.0044,
      "raan_deg": 3.6702,
      "arg_perigee_deg": 234.935,
      "mean_anomaly_deg": 125.1376,
      "mean_motion_rev_day": 15.27569153
    },
    {
      "epoch": "2026-04-25T09:43:16.650912Z",
      "apogee_km": 483.8912104291512,
      "perigee_km": 482.1141752487065,
      "latitude_deg": 7.73837311693114e-07,
      "longitude_deg": 0.7347696823944776,
      "height_km": 483.02305006220183,
      "semi_major_axis_km": 6861.139692838929,
      "eccentricity": 0.0001295,
      "inclination_deg": 43.0037,
      "raan_deg": 359.9782,
      "arg_perigee_deg": 254.1006,
      "mean_anomaly_deg": 105.9703,
      "mean_motion_rev_day": 15.27595497
    },
    {
      "epoch": "2026-04-26T15:32:14.044992Z",
      "apogee_km": 484.13116024622286,
      "perigee_km": 481.84105457543046,
      "latitude_deg": -6.819608946026138e-07,
      "longitude_deg": -94.74507080491347,
      "height_km": 483.52460680700125,
      "semi_major_axis_km": 6861.123107410826,
      "eccentricity": 0.00016689,
      "inclination_deg": 43.0018,
      "raan_deg": 352.962,
      "arg_perigee_deg": 228.2925,
      "mean_anomaly_deg": 131.7784,
      "mean_motion_rev_day": 15.27601036
    }
  ]
}